{
    "links": {
        "self": "http://www.neowsapp.com/rest/v1/neo/54016839?api_key=iIulBulltgU6a56xZRHN4H3l9WmuAYTsLGpBGhQ2"
    },
    "id": "54016839",
    "neo_reference_id": "54016839",
    "name": "(2020 HB9)",
    "designation": "2020 HB9",
    "nasa_jpl_url": "http://ssd.jpl.nasa.gov/sbdb.cgi?sstr=54016839",
    "absolute_magnitude_h": 24.473,
    "estimated_diameter": {
        "kilometers": {
            "estimated_diameter_min": 0.033880903,
            "estimated_diameter_max": 0.0757600022
        },
        "meters": {
            "estimated_diameter_min": 33.8809029921,
            "estimated_diameter_max": 75.7600022293
        },
        "miles": {
            "estimated_diameter_min": 0.0210526106,
            "estimated_diameter_max": 0.0470750683
        },
        "feet": {
            "estimated_diameter_min": 111.1578217724,
            "estimated_diameter_max": 248.556445714
        }
    },
    "is_potentially_hazardous_asteroid": false,
    "close_approach_data": [
        {
            "close_approach_date": "2020-04-23",
            "close_approach_date_full": "2020-Apr-23 04:06",
            "epoch_date_close_approach": 1587614760000,
            "relative_velocity": {
                "kilometers_per_second": "7.4171395612",
                "kilometers_per_hour": "26701.7024201553",
                "miles_per_hour": "16591.3994843459"
            },
            "miss_distance": {
                "astronomical": "0.0918229497",
                "lunar": "35.7191274333",
                "kilometers": "13736517.692237139",
                "miles": "8535476.2986609582"
            },
            "orbiting_body": "Earth"
        }
    ],
    "orbital_data": {
        "orbit_id": "4",
        "orbit_determination_date": "2020-05-12 06:43:11",
        "first_observation_date": "2020-04-28",
        "last_observation_date": "2020-05-12",
        "data_arc_in_days": 14,
        "observations_used": 32,
        "orbit_uncertainty": "8",
        "minimum_orbit_intersection": ".0888392",
        "jupiter_tisserand_invariant": "4.625",
        "epoch_osculation": "2458970.5",
        "eccentricity": ".2903150789480813",
        "semi_major_axis": "1.431024380622485",
        "inclination": "9.830748734861121",
        "ascending_node_longitude": "51.31772863866762",
        "orbital_period": "625.2719930145244",
        "perihelion_distance": "1.015576424585439",
        "perihelion_argument": "120.6483796813806",
        "aphelion_distance": "1.846472336659531",
        "perihelion_time": "2458925.112561576735",
        "mean_anomaly": "26.13179226787446",
        "mean_motion": ".5757494402786046",
        "equinox": "J2000",
        "orbit_class": {
            "orbit_class_type": "APO",
            "orbit_class_description": "Near-Earth asteroid orbits which cross the Earth’s orbit similar to that of 1862 Apollo",
            "orbit_class_range": "a (semi-major axis) > 1.0 AU; q (perihelion) < 1.017 AU"
        }
    },
    "is_sentry_object": false
}